NORAD_CAT_ID,OBJECT_NAME,OBJECT_TYPE,EPOCH,MEAN_MOTION,ECCENTRICITY,INCLINATION,RA_OF_ASC_NODE,ARG_OF_PERICENTER,MEAN_ANOMALY,BSTAR,MEAN_MOTION_DOT,MEAN_MOTION_DDOT,TLE_LINE0,TLE_LINE1,TLE_LINE2,SEMIMAJOR_AXIS,PERIOD,APOGEE,PERIGEE,DECAYED
53409.0,STARLINK-4490,PAYLOAD,2023-11-18 20:41:01,15.08837409,0.0001412,53.219,283.4247,90.961,269.1544,5.3854e-05,5.69e-06,0.0,0 STARLINK-4490,1 53409U 22097X   23322.86182641  .00000569  00000-0  53854-4 0  9998,2 53409  53.2190 283.4247 0001412  90.9610 269.1544 15.08837409 71707,6917.888,95.438,540.73,538.777,0.0
53409.0,STARLINK-4490,PAYLOAD,2023-11-19 04:37:57,15.08843624,0.0001402,53.2181,281.9395,97.3793,262.7359,0.00011283,1.508e-05,0.0,0 STARLINK-4490,1 53409U 22097X   23323.19302087  .00001508  00000-0  11283-3 0  9996,2 53409  53.2181 281.9395 0001402  97.3793 262.7359 15.08843624 71266,6917.869,95.437,540.704,538.764,0.0
53409.0,STARLINK-4490,PAYLOAD,2023-11-19 14:10:15,15.08842038,0.0001403,53.2189,280.1543,87.9172,272.1981,0.00014395,2.004e-05,0.0,0 STARLINK-4490,1 53409U 22097X   23323.59046195  .00002004  00000-0  14395-3 0  9994,2 53409  53.2189 280.1543 0001403  87.9172 272.1981 15.08842038 71812,6917.874,95.437,540.71,538.769,0.0
53409.0,STARLINK-4490,PAYLOAD,2023-11-19 20:31:48,15.08838239,0.000175,53.2194,278.9643,88.6529,271.4664,0.00010028,1.308e-05,0.0,0 STARLINK-4490,1 53409U 22097X   23323.85542677  .00001308  00000-0  10028-3 0  9994,2 53409  53.2194 278.9643 0001750  88.6529 271.4664 15.08838239 71361,6917.886,95.438,540.961,538.54,0.0
53409.0,STARLINK-4490,PAYLOAD,2023-11-20 14:01:03,15.08841707,0.0001437,53.2186,275.6932,88.0798,272.0358,8.0627e-05,9.96e-06,0.0,0 STARLINK-4490,1 53409U 22097X   23324.58406474  .00000996  00000-0  80627-4 0  9994,2 53409  53.2186 275.6932 0001437  88.0798 272.0358 15.08841707 71968,6917.875,95.437,540.734,538.746,0.0
53409.0,STARLINK-4490,PAYLOAD,2023-11-21 02:44:07,15.08851166,0.000143,53.2178,273.3131,84.9659,275.1496,4.6848e-05,4.58e-06,0.0,0 STARLINK-4490,1 53409U 22097X   23325.11397838  .00000458  00000-0  46848-4 0  9997,2 53409  53.2178 273.3131 0001430  84.9659 275.1496 15.08851166 71551,6917.846,95.437,540.701,538.722,0.0
53409.0,STARLINK-4490,PAYLOAD,2023-11-21 07:30:16,15.08855693,0.0001454,53.2183,272.4221,86.6326,273.4833,0.00010502,1.385e-05,0.0,0 STARLINK-4490,1 53409U 22097X   23325.31269373  .00001385  00000-0  10502-3 0  9998,2 53409  53.2183 272.4221 0001454  86.6326 273.4833 15.08855693 72076,6917.832,95.437,540.703,538.692,0.0
53409.0,STARLINK-4490,PAYLOAD,2023-11-22 02:34:54,15.08845768,0.0001713,53.2179,268.853,87.7177,272.4011,9.1263e-05,1.165e-05,0.0,0 STARLINK-4490,1 53409U 22097X   23326.10757981  .00001165  00000-0  91263-4 0  9993,2 53409  53.2179 268.8530 0001713  87.7177 272.4011 15.08845768 71705,6917.863,95.437,540.913,538.543,0.0
53409.0,STARLINK-4490,PAYLOAD,2023-11-22 05:45:40,15.08855085,0.0001529,53.2173,268.2576,96.3714,263.7452,0.0002267,3.323e-05,0.0,0 STARLINK-4490,1 53409U 22097X   23326.24005398  .00003323  00000-0  22670-3 0  9999,2 53409  53.2173 268.2576 0001529  96.3714 263.7452 15.08855085 71728,6917.834,95.437,540.757,538.642,0.0
53409.0,STARLINK-4490,PAYLOAD,2023-11-23 02:25:41,15.08850066,0.0001821,53.2177,264.3936,89.8016,270.3184,5.6616e-05,6.13e-06,0.0,0 STARLINK-4490,1 53409U 22097X   23327.10117428  .00000613  00000-0  56616-4 0  9990,2 53409  53.2177 264.3936 0001821  89.8016 270.3184 15.08850066 71850,6917.85,95.437,540.974,538.455,0.0
53409.0,STARLINK-4490,PAYLOAD,2023-11-23 05:36:27,15.08854341,0.0001775,53.2188,263.79,88.1557,271.9638,0.0001377,1.905e-05,0.0,0 STARLINK-4490,1 53409U 22097X   23327.23365077  .00001905  00000-0  13770-3 0  9997,2 53409  53.2188 263.7900 0001775  88.1557 271.9638 15.08854341 72364,6917.837,95.437,540.929,538.474,0.0
53409.0,STARLINK-4490,PAYLOAD,2023-11-24 02:16:29,15.0883083,0.0001759,53.2187,259.9267,85.2278,274.8915,-0.00014422,-2.582e-05,0.0,0 STARLINK-4490,1 53409U 22097X   23328.09478760 -.00002582  00000-0 -14422-3 0  9995,2 53409  53.2187 259.9267 0001759  85.2278 274.8915 15.08830830 72004,6917.908,95.438,540.99,538.557,0.0
53409.0,STARLINK-4490,PAYLOAD,2023-11-25 00:31:53,15.08840021,0.0001597,53.2178,255.7696,102.6283,257.4888,3.2253e-06,-2.37e-06,0.0,0 STARLINK-4490,1 53409U 22097X   23329.02214832 -.00000237  00000-0  32253-5 0  9995,2 53409  53.2178 255.7696 0001597 102.6283 257.4888 15.08840021 72148,6917.88,95.438,540.85,538.641,0.0
53409.0,STARLINK-4490,PAYLOAD,2023-11-25 05:18:03,15.08840349,0.0001769,53.2177,254.8715,118.4379,241.6792,0.00020926,3.044e-05,0.0,0 STARLINK-4490,1 53409U 22097X   23329.22086846  .00003044  00000-0  20926-3 0  9999,2 53409  53.2177 254.8715 0001769 118.4379 241.6792 15.08840349 72660,6917.879,95.438,540.968,538.521,0.0
53409.0,STARLINK-4490,PAYLOAD,2023-11-26 01:58:02,15.08878139,0.0001428,53.2178,251.013,90.2604,269.8552,0.00097847,0.00015335,0.0,0 STARLINK-4490,1 53409U 22097X   23330.08197824  .00015335  00000-0  97847-3 0  9996,2 53409  53.2178 251.0130 0001428  90.2604 269.8552 15.08878139 72306,6917.764,95.435,540.617,538.641,0.0
53409.0,STARLINK-4490,PAYLOAD,2023-11-26 22:38:04,15.08828364,0.000173,53.2178,247.143,120.617,239.4992,-0.00028033,-4.745e-05,0.0,0 STARLINK-4490,1 53409U 22097X   23330.94311089 -.00004745  00000-0 -28033-3 0  9998,2 53409  53.2178 247.1430 0001730 120.6170 239.4992 15.08828364 72921,6917.916,95.438,540.978,538.584,0.0
53409.0,STARLINK-4490,PAYLOAD,2023-11-27 00:13:28,15.08826906,0.0001656,53.2177,246.8456,119.6946,240.4212,-0.00028434,-4.809e-05,0.0,0 STARLINK-4490,1 53409U 22097X   23331.00935196 -.00004809  00000-0 -28434-3 0  9993,2 53409  53.2177 246.8456 0001656 119.6946 240.4212 15.08826906 72444,6917.92,95.438,540.931,538.64,0.0
53409.0,STARLINK-4490,PAYLOAD,2023-11-27 04:59:37,15.08822731,0.0001597,53.218,245.9548,115.2783,244.8375,-0.00027782,-4.705e-05,0.0,0 STARLINK-4490,1 53409U 22097X   23331.20807568 -.00004705  00000-0 -27782-3 0  9996,2 53409  53.2180 245.9548 0001597 115.2783 244.8375 15.08822731 72962,6917.933,95.439,540.903,538.693,0.0
53409.0,STARLINK-4490,PAYLOAD,2023-11-27 22:28:52,15.0884101,0.0001535,53.2182,242.6903,121.0167,239.0976,-3.0739e-05,-7.77e-06,0.0,0 STARLINK-4490,1 53409U 22097X   23331.93671344 -.00000777  00000-0 -30739-4 0  9999,2 53409  53.2182 242.6903 0001535 121.0167 239.0976 15.08841010 73073,6917.877,95.437,540.804,538.68,0.0
53409.0,STARLINK-4490,PAYLOAD,2023-11-28 01:39:38,15.08846372,0.0001457,53.2174,242.0941,100.5989,259.5168,0.0005255,8.087e-05,0.0,0 STARLINK-4490,1 53409U 22097X   23332.06919111  .00008087  00000-0  52550-3 0  9995,2 53409  53.2174 242.0941 0001457 100.5989 259.5168 15.08846372 72601,6917.861,95.437,540.734,538.718,0.0
53409.0,STARLINK-4490,PAYLOAD,2023-11-28 03:15:01,15.08849425,0.0001503,53.2172,241.795,110.77,249.3453,0.00061826,9.568e-05,0.0,0 STARLINK-4490,1 53409U 22097X   23332.13542993  .00009568  00000-0  61826-3 0  9994,2 53409  53.2172 241.7950 0001503 110.7700 249.3453 15.08849425 73103,6917.852,95.437,540.756,538.677,0.0
53409.0,STARLINK-4490,PAYLOAD,2023-11-29 03:05:48,15.08855613,0.0001308,53.2168,237.3329,109.6506,250.4627,0.00047497,7.282e-05,0.0,0 STARLINK-4490,1 53409U 22097X   23333.12903133  .00007282  00000-0  47497-3 0  9990,2 53409  53.2168 237.3329 0001308 109.6506 250.4627 15.08855613 72766,6917.833,95.437,540.603,538.793,0.0
53409.0,STARLINK-4490,PAYLOAD,2023-11-29 23:45:48,15.08856399,0.0001672,53.217,233.4679,134.2148,225.8982,0.00027132,4.035e-05,0.0,0 STARLINK-4490,1 53409U 22097X   23333.99014840  .00004035  00000-0  27132-3 0  9990,2 53409  53.2170 233.4679 0001672 134.2148 225.8982 15.08856399 72890,6917.83,95.437,540.852,538.539,0.0
53409.0,STARLINK-4490,PAYLOAD,2023-12-01 02:47:23,15.08843382,0.0001714,53.2172,228.4105,121.8314,238.2846,0.00021567,3.146e-05,0.0,0 STARLINK-4490,1 53409U 22097X   23335.11623985  .00003146  00000-0  21567-3 0  9990,2 53409  53.2172 228.4105 0001714 121.8314 238.2846 15.08843382 73069,6917.87,95.437,540.921,538.549,0.0
53409.0,STARLINK-4490,PAYLOAD,2023-12-01 20:16:37,15.08847949,0.0001715,53.2171,225.1388,113.2809,246.8364,0.00056867,8.776e-05,0.0,0 STARLINK-4490,1 53409U 22097X   23335.84487999  .00008776  00000-0  56867-3 0  9998,2 53409  53.2171 225.1388 0001715 113.2809 246.8364 15.08847949 73669,6917.856,95.437,540.908,538.535,0.0
53409.0,STARLINK-4490,PAYLOAD,2023-12-01 23:27:23,15.08870491,0.000172,53.2174,224.5431,93.1533,266.9656,0.00081118,0.00012656,0.0,0 STARLINK-4490,1 53409U 22097X   23335.97735285  .00012656  00000-0  81118-3 0  9995,2 53409  53.2174 224.5431 0001720  93.1533 266.9656 15.08870491 73193,6917.787,95.436,540.842,538.462,0.0
53409.0,STARLINK-4490,PAYLOAD,2023-12-02 20:07:24,15.08842698,0.0002071,53.2171,220.6794,126.1874,233.931,2.2683e-05,7.3e-07,0.0,0 STARLINK-4490,1 53409U 22097X   23336.83847658  .00000073  00000-0  22683-4 0  9992,2 53409  53.2171 220.6794 0002071 126.1874 233.9310 15.08842698 73328,6917.872,95.437,541.17,538.304,0.0
53409.0,STARLINK-4490,PAYLOAD,2023-12-02 21:42:47,15.0883913,0.0002115,53.2168,220.3821,133.1572,226.9597,-7.7949e-05,-1.529e-05,0.0,0 STARLINK-4490,1 53409U 22097X   23336.90471665 -.00001529  00000-0 -77949-4 0  9995,2 53409  53.2168 220.3821 0002115 133.1572 226.9597 15.08839130 73825,6917.883,95.438,541.211,538.285,0.0
53409.0,STARLINK-4490,PAYLOAD,2023-12-03 02:28:57,15.08833836,0.000197,53.2168,219.4924,128.6296,231.4872,-0.00017362,-3.05e-05,0.0,0 STARLINK-4490,1 53409U 22097X   23337.10343936 -.00003050  00000-0 -17362-3 0  9990,2 53409  53.2168 219.4924 0001970 128.6296 231.4872 15.08833836 73361,6917.899,95.438,541.127,538.401,0.0
53409.0,STARLINK-4490,PAYLOAD,2023-12-03 23:08:58,15.08831593,0.0001559,53.2166,215.6241,104.4919,255.6246,-0.00013367,-2.414e-05,0.0,0 STARLINK-4490,1 53409U 22097X   23337.96456727 -.00002414  00000-0 -13367-3 0  9991,2 53409  53.2166 215.6241 0001559 104.4919 255.6246 15.08831593 73985,6917.906,95.438,540.85,538.693,0.0
